STARLINK-1804_new
1 16704C 20073AL  21326.15416653  .00008187  00000-0  54857-3 0  3268
2 16704  53.0564  63.0392 0000636 264.5528 146.8240 15.06387876    13
STARLINK-1804_old
1 26704C 20073AL  21325.15832559  .00006474  00000-0  43369-3 0  3256
2 26704  53.0560  67.5095 0000751 251.9323 155.9325 15.06401989    16
